HODOYOSHI-4             
1 40011U 14033B   26194.52617309  .00000854  00000+0  97875-4 0  9998
2 40011  97.5454  18.0790 0022609 215.3496 144.6224 14.88185774652724
DEIMOS-2                
1 40013U 14033D   26194.50894131  .00000271  00000+0  30624-4 0  9990
2 40013  97.5801  68.0696 0000848  95.4397 264.6920 14.93790697641658
HODOYOSHI-3             
1 40015U 14033F   26194.45645646  .00000486  00000+0  62096-4 0  9997
2 40015  97.6442 356.4440 0031289 267.9107  91.8526 14.85435370651525
SPOT 7                  
1 40053U 14034A   26194.48116303  .00000424  00000+0  95840-4 0  9991
2 40053  98.0624 256.2940 0001609  95.1553 264.9831 14.60980687640973
SKYSAT-B                
1 40072U 14037D   26194.41688456  .00000629  00000+0  75129-4 0  9996
2 40072  98.3853 154.8803 0005434 178.0449 182.0788 14.88089685649863
WORLDVIEW-3 (WV-3)      
1 40115U 14048A   26194.51270110  .00000424  00000+0  55842-4 0  9994
2 40115  97.8558 268.9813 0001175 158.4934 201.6331 14.85062631645816
GAOFEN-2                
1 40118U 14049A   26194.52749360  .00000400  00000+0  58573-4 0  9995
2 40118  98.0104 258.7081 0008124 139.3515 220.8305 14.80925976643139
YAOGAN-21               
1 40143U 14053A   26194.51322896  .00007398  00000+0  28366-3 0  9997
2 40143  97.1466 233.6229 0007955  14.0457 346.1002 15.26750930658970
YAOGAN-22               
1 40275U 14063A   26194.42329667 -.00000062  00000+0 -39220-4 0  9992
2 40275 100.7759 346.1359 0006837 128.8633 231.3089 13.15531621563261
ASNARO                  
1 40298U 14070A   26194.49836649  .00006000  00000+0  28301-3 0  9998
2 40298  97.3451 269.9054 0006799  93.3386 266.8627 15.19815293648001
YAOGAN-24               
1 40310U 14072A   26194.51825188  .00000056  00000+0  15866-4 0  9992
2 40310  98.1514 332.0803 0014486 174.8786 185.2574 14.76116551627601
CBERS 4                 
1 40336U 14079A   26194.52388556  .00000193  00000+0  81728-4 0  9993
2 40336  98.3525 250.5274 0000877  52.5420 307.5846 14.35516203607731
YAOGAN-26               
1 40362U 14088A   26194.50953959  .00018031  00000+0  34153-3 0  9994
2 40362  97.0641 194.1207 0002250 350.4298   9.6910 15.48405811641775
SMAP                    
1 40376U 15003A   26194.47295979  .00000200  00000+0  47754-4 0  9995
2 40376  98.1283 201.1958 0001588  95.4701 264.6682 14.63388290611463
KOMPSAT-3A              
1 40536U 15014A   26194.50274146  .00019186  00000+0  26437-3 0  9999
2 40536  97.6885 187.8162 0056413  81.6249 279.1394 15.55355414625900
SENTINEL-2A             
1 40697U 15028A   26194.50839913  .00000187  00000+0  87855-4 0  9994
2 40697  98.5684 268.9854 0001283  95.3317 264.8012 14.30814582577493
GAOFEN-8                
1 40701U 15030A   26194.55291964  .00015870  00000+0  31649-3 0  9990
2 40701  97.6894  29.5238 0010020 101.2060 259.0316 15.46907946615525
CARBONITE 1 (CBNT-1)    
1 40718U 15032D   26194.48563075  .00000423  00000+0  57303-4 0  9991
2 40718  97.6515  11.4535 0013704 202.9641 157.0963 14.83663639593246
YAOGAN-27               
1 40878U 15040A   26194.48379616  .00000186  00000+0  60217-3 0  9996
2 40878 100.1160 179.7265 0008482 148.7225 211.4395 13.16071678521122
GAOFEN-9 01             
1 40894U 15047A   26194.51337823  .00000505  00000+0  68035-4 0  9991
2 40894  97.6271 229.0109 0028558  55.7881 304.6034 14.82933203584095
YAOGAN-28               
1 41026U 15064A   26194.52473895  .00004007  00000+0  15027-3 0  9992
2 41026  97.3103 332.2596 0012079  98.1579 262.1031 15.27746106594705
YAOGAN-29               
1 41038U 15069A   26194.49017594  .00000256  00000+0  38085-4 0  9998
2 41038  98.0024 223.1630 0000875  12.9843 347.1392 14.83105248574523
KENT RIDGE 1            
1 41167U 15077B   26193.89805858  .00002563  00000+0  73737-4 0  9997
2 41167  14.9801  74.7485 0008280 242.6265 117.3215 15.23276730585020
GAOFEN-4                
1 41194U 15083A   26194.58190127 -.00000340  00000+0  00000+0 0  9997
2 41194   0.4231  83.8395 0003701 125.6902  37.0996  1.00283169 38794
JASON-3                 
1 41240U 16002A   26194.48819735 -.00000016  00000+0  18120-3 0  9999
2 41240  66.0416  70.5413 0008200 271.1045  88.9034 12.87628570490636
SENTINEL-3A             
1 41335U 16011A   26194.44513301  .00000047  00000+0  37298-4 0  9991
2 41335  98.6238 261.4501 0001370  90.7728 269.3609 14.26739469541801
ZIYUAN 3-02 (ZY 3-02)   
1 41556U 16033A   26194.49959772  .00003011  00000+0  13691-3 0  9995
2 41556  97.3832 269.7677 0013889 190.8080 169.2859 15.21424245561983
CARTOSAT-2C             
1 41599U 16040A   26194.47218583  .00003247  00000+0  15713-3 0  9994
2 41599  97.4479 254.0866 0009721  50.9938 309.2160 15.19258376557706
SKYSAT-C1               
1 41601U 16040C   26192.63835800  .00005514  00000+0  15589-3 0  9991
2 41601  96.9557 223.0369 0000645 355.4804   4.6435 15.36708815561620
LAPAN-A3                
1 41603U 16040E   26194.42803676  .00001933  00000+0  62416-4 0  9991
2 41603  97.1497 189.7157 0008231 283.7897  76.2430 15.33271266558836
GAOFEN-3                
1 41727U 16049A   26194.51697471  .00000074  00000+0  35704-4 0  9996
2 41727  98.4014 201.9055 0001788  85.6130 274.5264 14.42218899522443
