OBJECT_NAME,OBJECT_ID,EPOCH,MEAN_MOTION,ECCENTRICITY,INCLINATION,RA_OF_ASC_NODE,ARG_OF_PERICENTER,MEAN_ANOMALY,EPHEMERIS_TYPE,CLASSIFICATION_TYPE,NORAD_CAT_ID,ELEMENT_SET_NO,REV_AT_EPOCH,BSTAR,MEAN_MOTION_DOT,MEAN_MOTION_DDOT
HODOYOSHI-4,2014-033B,2026-07-13T12:37:41.354976,14.88185774,.0022609,97.5454,18.0790,215.3496,144.6224,0,U,40011,999,65272,.97875E-4,.854E-5,0
DEIMOS-2,2014-033D,2026-07-13T12:12:52.529184,14.93790697,.0000848,97.5801,68.0696,95.4397,264.6920,0,U,40013,999,64165,.30624E-4,.271E-5,0
HODOYOSHI-3,2014-033F,2026-07-13T10:57:17.838144,14.85435370,.0031289,97.6442,356.4440,267.9107,91.8526,0,U,40015,999,65152,.62096E-4,.486E-5,0
SPOT 7,2014-034A,2026-07-13T11:32:52.485792,14.60980687,.0001609,98.0624,256.2940,95.1553,264.9831,0,U,40053,999,64097,.9584E-4,.424E-5,0
SKYSAT-B,2014-037D,2026-07-13T10:00:18.825984,14.88089685,.0005434,98.3853,154.8803,178.0449,182.0788,0,U,40072,999,64986,.75129E-4,.629E-5,0
WORLDVIEW-3 (WV-3),2014-048A,2026-07-13T12:18:17.375040,14.85062631,.0001175,97.8558,268.9813,158.4934,201.6331,0,U,40115,999,64581,.55842E-4,.424E-5,0
GAOFEN-2,2014-049A,2026-07-13T12:39:35.447040,14.80925976,.0008124,98.0104,258.7081,139.3515,220.8305,0,U,40118,999,64313,.58573E-4,.4E-5,0
YAOGAN-21,2014-053A,2026-07-13T12:19:02.982144,15.26750930,.0007955,97.1466,233.6229,14.0457,346.1002,0,U,40143,999,65897,.28366E-3,.7398E-4,0
YAOGAN-22,2014-063A,2026-07-13T10:09:32.832288,13.15531621,.0006837,100.7759,346.1359,128.8633,231.3089,0,U,40275,999,56326,-.3922E-4,-.62E-6,0
ASNARO,2014-070A,2026-07-13T11:57:38.864736,15.19815293,.0006799,97.3451,269.9054,93.3386,266.8627,0,U,40298,999,64800,.28301E-3,.6E-4,0
YAOGAN-24,2014-072A,2026-07-13T12:26:16.962432,14.76116551,.0014486,98.1514,332.0803,174.8786,185.2574,0,U,40310,999,62760,.15866E-4,.56E-6,0
CBERS 4,2014-079A,2026-07-13T12:34:23.712384,14.35516203,.0000877,98.3525,250.5274,52.5420,307.5846,0,U,40336,999,60773,.81728E-4,.193E-5,0
YAOGAN-26,2014-088A,2026-07-13T12:13:44.220576,15.48405811,.000225,97.0641,194.1207,350.4298,9.6910,0,U,40362,999,64177,.34153E-3,.18031E-3,0
SMAP,2015-003A,2026-07-13T11:21:03.725856,14.63388290,.0001588,98.1283,201.1958,95.4701,264.6682,0,U,40376,999,61146,.47754E-4,.2E-5,0
KOMPSAT-3A,2015-014A,2026-07-13T12:03:56.862144,15.55355414,.0056413,97.6885,187.8162,81.6249,279.1394,0,U,40536,999,62590,.26437E-3,.19186E-3,0
SENTINEL-2A,2015-028A,2026-07-13T12:12:05.684832,14.30814582,.0001283,98.5684,268.9854,95.3317,264.8012,0,U,40697,999,57749,.87855E-4,.187E-5,0
GAOFEN-8,2015-030A,2026-07-13T13:16:12.256896,15.46907946,.001002,97.6894,29.5238,101.2060,259.0316,0,U,40701,999,61552,.31649E-3,.1587E-3,0
CARBONITE 1 (CBNT-1),2015-032D,2026-07-13T11:39:18.496800,14.83663639,.0013704,97.6515,11.4535,202.9641,157.0963,0,U,40718,999,59324,.57303E-4,.423E-5,0
YAOGAN-27,2015-040A,2026-07-13T11:36:39.988224,13.16071678,.0008482,100.1160,179.7265,148.7225,211.4395,0,U,40878,999,52112,.60217E-3,.186E-5,0
GAOFEN-9 01,2015-047A,2026-07-13T12:19:15.879072,14.82933203,.0028558,97.6271,229.0109,55.7881,304.6034,0,U,40894,999,58409,.68035E-4,.505E-5,0
YAOGAN-28,2015-064A,2026-07-13T12:35:37.445280,15.27746106,.0012079,97.3103,332.2596,98.1579,262.1031,0,U,41026,999,59470,.15027E-3,.4007E-4,0
YAOGAN-29,2015-069A,2026-07-13T11:45:51.201216,14.83105248,.0000875,98.0024,223.1630,12.9843,347.1392,0,U,41038,999,57452,.38085E-4,.256E-5,0
KENT RIDGE 1,2015-077B,2026-07-12T21:33:12.261312,15.23276730,.00082804,14.9801,74.7485,242.6265,117.3215,0,U,41167,999,58502,.73736956E-4,.2563E-4,0
GAOFEN-4,2015-083A,2026-07-13T13:57:56.269728,1.00283169,.0003701,0.4231,83.8395,125.6902,37.0996,0,U,41194,999,3879,0,-.34E-5,0
JASON-3,2016-002A,2026-07-13T11:43:00.251040,12.87628570,.00082,66.0416,70.5413,271.1045,88.9034,0,U,41240,999,49063,.1812E-3,-.16E-6,0
SENTINEL-3A,2016-011A,2026-07-13T10:40:59.492064,14.26739469,.000137,98.6238,261.4501,90.7728,269.3609,0,U,41335,999,54180,.37298E-4,.47E-6,0
ZIYUAN 3-02 (ZY 3-02),2016-033A,2026-07-13T11:59:25.243008,15.21424245,.0013889,97.3832,269.7677,190.8080,169.2859,0,U,41556,999,56198,.13691E-3,.3011E-4,0
CARTOSAT-2C,2016-040A,2026-07-13T11:19:56.855712,15.19258376,.0009721,97.4479,254.0866,50.9938,309.2160,0,U,41599,999,55770,.15713E-3,.3247E-4,0
SKYSAT-C1,2016-040C,2026-07-11T15:19:14.131200,15.36708815,.0000645,96.9557,223.0369,355.4804,4.6435,0,U,41601,999,56162,.15588995E-3,.5514E-4,0
LAPAN-A3,2016-040E,2026-07-13T10:16:22.376064,15.33271266,.0008231,97.1497,189.7157,283.7897,76.2430,0,U,41603,999,55883,.62416E-4,.1933E-4,0
GAOFEN-3,2016-049A,2026-07-13T12:24:26.614944,14.42218899,.0001788,98.4014,201.9055,85.6130,274.5264,0,U,41727,999,52244,.35704E-4,.74E-6,0
